IRIDIUM 7               
1 24793U 97020B   24237.61936421  .00000833  00000+0  28361-3 0  9999
2 24793  86.3956 301.1758 0002309  87.3792 272.7669 14.35373560429347
IRIDIUM 5               
1 24795U 97020D   24237.46063027  .00007450  00000+0  68978-3 0  9997
2 24795  86.3918 219.8936 0122617 119.0947 242.2623 14.88712468441225
IRIDIUM 4               
1 24796U 97020E   24237.44272118  .00000756  00000+0  25200-3 0  9992
2 24796  86.3946 298.3212 0002377  93.2092 266.9377 14.36300111429899
IRIDIUM 914             
1 24836U 97030A   24237.70696544  .00001008  00000+0  31276-3 0  9991
2 24836  86.3944 307.6976 0003871 104.7449 255.4179 14.40186671426547
IRIDIUM 16              
1 24841U 97030F   24237.78334062  .00001145  00000+0  37195-3 0  9997
2 24841  86.4076 329.8206 0001659  26.0566 334.0716 14.38079346424658
IRIDIUM 911             
1 24842U 97030G   24237.50727678  .00001504  00000+0  40966-3 0  9996
2 24842  86.4501 329.0021 0014553  15.5885 344.5763 14.46773431432172
IRIDIUM 17              
1 24870U 97034B   24237.37806607  .00001315  00000+0  43586-3 0  9997
2 24870  86.4009 359.5515 0000511 115.9725 244.1525 14.37170008420943
IRIDIUM 920             
1 24871U 97034C   24237.55815543  .00001132  00000+0  34680-3 0  9999
2 24871  86.4024 339.4066 0010916 351.2590   8.8418 14.40884553423854
